PROBA-2                 
1 36037U 09059B   26065.83142891  .00000439  00000+0  11294-3 0  9992
2 36037  98.2428 250.6044 0012219 233.7411 126.2658 14.54789095866643
YAOGAN-7                
1 36110U 09069A   26065.24926901  .00001065  00000+0  15461-3 0  9998
2 36110  98.0217 311.6777 0025042  14.3764 345.8153 14.77886086874429
XIWANG-1 (HOPE-1)       
1 36122U 09072B   26065.87301457 -.00000369  00000+0 -84969-3 0  9994
2 36122 100.3916  21.3943 0008051 105.5654 254.6348 13.16434063779543
RADUGA-1M 2             
1 36358U 10002A   26065.77247124  .00000068  00000+0  00000+0 0  9993
2 36358   3.3538  80.1447 0008441 250.7355 181.4717  0.98964261 49015
COSMOS 2463             
1 36519U 10017A   26065.27614148  .00000081  00000+0  72199-4 0  9995
2 36519  82.9636 325.3388 0037313  56.7201  62.6131 13.71657616793821
CARTOSAT-2B             
1 36795U 10035A   26065.88673615  .00001148  00000+0  16312-3 0  9991
2 36795  97.8751 117.2261 0012199 157.8344 202.3397 14.78764007844739
AISSAT 1                
1 36797U 10035C   26065.61787431  .00003229  00000+0  28675-3 0  9993
2 36797  98.1028 321.2246 0010038  41.7884 318.4102 14.96871221848871
TISAT 1                 
1 36799U 10035E   26065.28518106  .00024887  00000+0  92801-3 0  9994
2 36799  98.0648   3.0990 0000785 167.2342 192.8915 15.27425128851979
YAOGAN-10               
1 36834U 10038A   26065.88852031  .00001904  00000+0  22954-3 0  9998
2 36834  97.9078  90.0820 0001602  89.0471  33.4875 14.84997796842023
SHIJIAN-6 04B (SJ-6 04B)
1 37180U 10051B   26065.90635353  .00001370  00000+0  11778-3 0  9996
2 37180  97.8750  70.2653 0008757 305.9769  54.0641 14.99112533840354
FENGYUN 3B              
1 37214U 10059A   26065.84114209  .00000311  00000+0  18432-3 0  9995
2 37214  98.9768 111.3587 0023025 115.9060 353.7863 14.14817356792953
COSMO-SKYMED 4          
1 37216U 10060A   26065.82774081  .00000929  00000+0  12318-3 0  9999
2 37216  97.8857 250.9058 0001439  82.8214 277.3162 14.82159565829403
O/OREOS (USA 219)       
1 37224U 10062C   26065.38214941  .00003272  00000+0  31757-3 0  9997
2 37224  71.9717 313.1295 0016904 262.2775  97.6476 14.93259306101291
ELEKTRO-L 1 (GOMS 2)    
1 37344U 11001A   26065.42496277 -.00000264  00000+0  00000+0 0  9995
2 37344   9.4537  55.5360 0003458  10.6983 180.3786  1.00173969 55450
RESOURCESAT-2           
1 37387U 11015A   26065.47432062 -.00000212  00000+0 -76769-4 0  9998
2 37387  98.7730 133.5822 0006306 147.5768 212.5798 14.21495217771589
YOUTHSAT                
1 37388U 11015B   26065.42250987  .00000349  00000+0  16496-3 0  9997
2 37388  98.3588  44.1663 0013318 285.4204 228.1961 14.25580199772994
APRIZESAT 6             
1 37793U 11044F   26065.52274729  .00001376  00000+0  20124-3 0  9994
2 37793  98.2420 333.9100 0044400  55.3828 120.7989 14.76744408781993
