[{"OBJECT_NAME":"PROBA-2","OBJECT_ID":"2009-059B","EPOCH":"2026-03-06T19:57:15.457824","MEAN_MOTION":14.54789095,"ECCENTRICITY":0.0012219,"INCLINATION":98.2428,"RA_OF_ASC_NODE":250.6044,"ARG_OF_PERICENTER":233.7411,"MEAN_ANOMALY":126.2658,"EPHEMERIS_TYPE":0,"CLASSIFICATION_TYPE":"U","NORAD_CAT_ID":36037,"ELEMENT_SET_NO":999,"REV_AT_EPOCH":86664,"BSTAR":0.00011294,"MEAN_MOTION_DOT":4.39e-6,"MEAN_MOTION_DDOT":0},{"OBJECT_NAME":"YAOGAN-7","OBJECT_ID":"2009-069A","EPOCH":"2026-03-06T05:58:56.842464","MEAN_MOTION":14.77886086,"ECCENTRICITY":0.00250425,"INCLINATION":98.0217,"RA_OF_ASC_NODE":311.6777,"ARG_OF_PERICENTER":14.3764,"MEAN_ANOMALY":345.8153,"EPHEMERIS_TYPE":0,"CLASSIFICATION_TYPE":"U","NORAD_CAT_ID":36110,"ELEMENT_SET_NO":999,"REV_AT_EPOCH":87442,"BSTAR":0.00015460812,"MEAN_MOTION_DOT":1.065e-5,"MEAN_MOTION_DDOT":0},{"OBJECT_NAME":"XIWANG-1 (HOPE-1)","OBJECT_ID":"2009-072B","EPOCH":"2026-03-06T20:57:08.458848","MEAN_MOTION":13.16434063,"ECCENTRICITY":0.0008051,"INCLINATION":100.3916,"RA_OF_ASC_NODE":21.3943,"ARG_OF_PERICENTER":105.5654,"MEAN_ANOMALY":254.6348,"EPHEMERIS_TYPE":0,"CLASSIFICATION_TYPE":"U","NORAD_CAT_ID":36122,"ELEMENT_SET_NO":999,"REV_AT_EPOCH":77954,"BSTAR":-0.00084969,"MEAN_MOTION_DOT":-3.69e-6,"MEAN_MOTION_DDOT":0},{"OBJECT_NAME":"RADUGA-1M 2","OBJECT_ID":"2010-002A","EPOCH":"2026-03-06T18:32:21.515136","MEAN_MOTION":0.98964261,"ECCENTRICITY":0.0008441,"INCLINATION":3.3538,"RA_OF_ASC_NODE":80.1447,"ARG_OF_PERICENTER":250.7355,"MEAN_ANOMALY":181.4717,"EPHEMERIS_TYPE":0,"CLASSIFICATION_TYPE":"U","NORAD_CAT_ID":36358,"ELEMENT_SET_NO":999,"REV_AT_EPOCH":4901,"BSTAR":0,"MEAN_MOTION_DOT":6.8e-7,"MEAN_MOTION_DDOT":0},{"OBJECT_NAME":"COSMOS 2463","OBJECT_ID":"2010-017A","EPOCH":"2026-03-06T06:37:38.623872","MEAN_MOTION":13.71657616,"ECCENTRICITY":0.00373134,"INCLINATION":82.9636,"RA_OF_ASC_NODE":325.3388,"ARG_OF_PERICENTER":56.7201,"MEAN_ANOMALY":62.6131,"EPHEMERIS_TYPE":0,"CLASSIFICATION_TYPE":"U","NORAD_CAT_ID":36519,"ELEMENT_SET_NO":999,"REV_AT_EPOCH":79382,"BSTAR":7.2199205e-5,"MEAN_MOTION_DOT":8.1e-7,"MEAN_MOTION_DDOT":0},{"OBJECT_NAME":"CARTOSAT-2B","OBJECT_ID":"2010-035A","EPOCH":"2026-03-06T21:16:54.003360","MEAN_MOTION":14.78764007,"ECCENTRICITY":0.0012199,"INCLINATION":97.8751,"RA_OF_ASC_NODE":117.2261,"ARG_OF_PERICENTER":157.8344,"MEAN_ANOMALY":202.3397,"EPHEMERIS_TYPE":0,"CLASSIFICATION_TYPE":"U","NORAD_CAT_ID":36795,"ELEMENT_SET_NO":999,"REV_AT_EPOCH":84473,"BSTAR":0.00016312,"MEAN_MOTION_DOT":1.148e-5,"MEAN_MOTION_DDOT":0},{"OBJECT_NAME":"AISSAT 1","OBJECT_ID":"2010-035C","EPOCH":"2026-03-06T14:49:44.340384","MEAN_MOTION":14.96871221,"ECCENTRICITY":0.00100385,"INCLINATION":98.1028,"RA_OF_ASC_NODE":321.2246,"ARG_OF_PERICENTER":41.7884,"MEAN_ANOMALY":318.4102,"EPHEMERIS_TYPE":0,"CLASSIFICATION_TYPE":"U","NORAD_CAT_ID":36797,"ELEMENT_SET_NO":999,"REV_AT_EPOCH":84887,"BSTAR":0.00028674942,"MEAN_MOTION_DOT":3.229e-5,"MEAN_MOTION_DDOT":0},{"OBJECT_NAME":"TISAT 1","OBJECT_ID":"2010-035E","EPOCH":"2026-03-06T06:50:39.643584","MEAN_MOTION":15.27425128,"ECCENTRICITY":7.852e-5,"INCLINATION":98.0648,"RA_OF_ASC_NODE":3.099,"ARG_OF_PERICENTER":167.2342,"MEAN_ANOMALY":192.8915,"EPHEMERIS_TYPE":0,"CLASSIFICATION_TYPE":"U","NORAD_CAT_ID":36799,"ELEMENT_SET_NO":999,"REV_AT_EPOCH":85197,"BSTAR":0.00092801254,"MEAN_MOTION_DOT":0.00024887,"MEAN_MOTION_DDOT":0},{"OBJECT_NAME":"YAOGAN-10","OBJECT_ID":"2010-038A","EPOCH":"2026-03-06T21:19:28.154784","MEAN_MOTION":14.84997796,"ECCENTRICITY":0.0001602,"INCLINATION":97.9078,"RA_OF_ASC_NODE":90.082,"ARG_OF_PERICENTER":89.0471,"MEAN_ANOMALY":33.4875,"EPHEMERIS_TYPE":0,"CLASSIFICATION_TYPE":"U","NORAD_CAT_ID":36834,"ELEMENT_SET_NO":999,"REV_AT_EPOCH":84202,"BSTAR":0.00022954,"MEAN_MOTION_DOT":1.904e-5,"MEAN_MOTION_DDOT":0},{"OBJECT_NAME":"SHIJIAN-6 04B (SJ-6 04B)","OBJECT_ID":"2010-051B","EPOCH":"2026-03-06T21:45:08.944992","MEAN_MOTION":14.99112533,"ECCENTRICITY":0.0008757,"INCLINATION":97.875,"RA_OF_ASC_NODE":70.2653,"ARG_OF_PERICENTER":305.9769,"MEAN_ANOMALY":54.0641,"EPHEMERIS_TYPE":0,"CLASSIFICATION_TYPE":"U","NORAD_CAT_ID":37180,"ELEMENT_SET_NO":999,"REV_AT_EPOCH":84035,"BSTAR":0.00011778,"MEAN_MOTION_DOT":1.37e-5,"MEAN_MOTION_DDOT":0},{"OBJECT_NAME":"FENGYUN 3B","OBJECT_ID":"2010-059A","EPOCH":"2026-03-06T20:11:14.676576","MEAN_MOTION":14.14817356,"ECCENTRICITY":0.0023025,"INCLINATION":98.9768,"RA_OF_ASC_NODE":111.3587,"ARG_OF_PERICENTER":115.906,"MEAN_ANOMALY":353.7863,"EPHEMERIS_TYPE":0,"CLASSIFICATION_TYPE":"U","NORAD_CAT_ID":37214,"ELEMENT_SET_NO":999,"REV_AT_EPOCH":79295,"BSTAR":0.00018432,"MEAN_MOTION_DOT":3.11e-6,"MEAN_MOTION_DDOT":0},{"OBJECT_NAME":"COSMO-SKYMED 4","OBJECT_ID":"2010-060A","EPOCH":"2026-03-06T19:51:56.805984","MEAN_MOTION":14.82159565,"ECCENTRICITY":0.0001439,"INCLINATION":97.8857,"RA_OF_ASC_NODE":250.9058,"ARG_OF_PERICENTER":82.8214,"MEAN_ANOMALY":277.3162,"EPHEMERIS_TYPE":0,"CLASSIFICATION_TYPE":"U","NORAD_CAT_ID":37216,"ELEMENT_SET_NO":999,"REV_AT_EPOCH":82940,"BSTAR":0.00012318,"MEAN_MOTION_DOT":9.29e-6,"MEAN_MOTION_DDOT":0},{"OBJECT_NAME":"O/OREOS (USA 219)","OBJECT_ID":"2010-062C","EPOCH":"2026-03-06T09:10:17.709024","MEAN_MOTION":14.93259306,"ECCENTRICITY":0.00169046,"INCLINATION":71.9717,"RA_OF_ASC_NODE":313.1295,"ARG_OF_PERICENTER":262.2775,"MEAN_ANOMALY":97.6476,"EPHEMERIS_TYPE":0,"CLASSIFICATION_TYPE":"U","NORAD_CAT_ID":37224,"ELEMENT_SET_NO":999,"REV_AT_EPOCH":10129,"BSTAR":0.00031756531,"MEAN_MOTION_DOT":3.272e-5,"MEAN_MOTION_DDOT":0},{"OBJECT_NAME":"ELEKTRO-L 1 (GOMS 2)","OBJECT_ID":"2011-001A","EPOCH":"2026-03-06T10:11:56.783328","MEAN_MOTION":1.00173969,"ECCENTRICITY":0.00034584,"INCLINATION":9.4537,"RA_OF_ASC_NODE":55.536,"ARG_OF_PERICENTER":10.6983,"MEAN_ANOMALY":180.3786,"EPHEMERIS_TYPE":0,"CLASSIFICATION_TYPE":"U","NORAD_CAT_ID":37344,"ELEMENT_SET_NO":999,"REV_AT_EPOCH":5545,"BSTAR":0,"MEAN_MOTION_DOT":-2.64e-6,"MEAN_MOTION_DDOT":0},{"OBJECT_NAME":"RESOURCESAT-2","OBJECT_ID":"2011-015A","EPOCH":"2026-03-06T11:23:01.301568","MEAN_MOTION":14.21495217,"ECCENTRICITY":0.00063064,"INCLINATION":98.773,"RA_OF_ASC_NODE":133.5822,"ARG_OF_PERICENTER":147.5768,"MEAN_ANOMALY":212.5798,"EPHEMERIS_TYPE":0,"CLASSIFICATION_TYPE":"U","NORAD_CAT_ID":37387,"ELEMENT_SET_NO":999,"REV_AT_EPOCH":77158,"BSTAR":-7.6768733e-5,"MEAN_MOTION_DOT":-2.12e-6,"MEAN_MOTION_DDOT":0},{"OBJECT_NAME":"YOUTHSAT","OBJECT_ID":"2011-015B","EPOCH":"2026-03-06T10:08:24.852768","MEAN_MOTION":14.25580199,"ECCENTRICITY":0.00133187,"INCLINATION":98.3588,"RA_OF_ASC_NODE":44.1663,"ARG_OF_PERICENTER":285.4204,"MEAN_ANOMALY":228.1961,"EPHEMERIS_TYPE":0,"CLASSIFICATION_TYPE":"U","NORAD_CAT_ID":37388,"ELEMENT_SET_NO":999,"REV_AT_EPOCH":77299,"BSTAR":0.00016496497,"MEAN_MOTION_DOT":3.49e-6,"MEAN_MOTION_DDOT":0},{"OBJECT_NAME":"APRIZESAT 6","OBJECT_ID":"2011-044F","EPOCH":"2026-03-06T12:32:45.365856","MEAN_MOTION":14.76744408,"ECCENTRICITY":0.00444006,"INCLINATION":98.242,"RA_OF_ASC_NODE":333.91,"ARG_OF_PERICENTER":55.3828,"MEAN_ANOMALY":120.7989,"EPHEMERIS_TYPE":0,"CLASSIFICATION_TYPE":"U","NORAD_CAT_ID":37793,"ELEMENT_SET_NO":999,"REV_AT_EPOCH":78199,"BSTAR":0.00020123572,"MEAN_MOTION_DOT":1.376e-5,"MEAN_MOTION_DDOT":0}]
